STARLINK-3151
1 49408U 21104A   26061.16668981  .01121100  00000+0  45018-1 0  9997
2 49408  53.2169 262.4122 0001247 107.0196 187.3254 15.21789936  5781
